GLOBALSTAR M045         
1 25676U 99019A   25104.83476802 -.00000064  00000+0  25971-3 0  9991
2 25676  51.9943 125.8369 0000461  97.6529  73.8541 12.27060947185619
GLOBALSTAR M019         
1 25677U 99019B   25104.79842580 -.00000116  00000+0 -27634-3 0  9994
2 25677  51.9879 251.8454 0001606 163.4508 339.9950 12.13877147177449
GLOBALSTAR M044         
1 25678U 99019C   25105.19081267 -.00000047  00000+0  51160-3 0  9990
2 25678  51.9958 194.2352 0005909 276.1981 117.8005 11.90248567163803
GLOBALSTAR M042         
1 25679U 99019D   25104.77881873 -.00000076  00000+0  15047-3 0  9991
2 25679  52.0007 229.9570 0003434 160.5829 351.5589 12.22081592177502
GLOBALSTAR M025         
1 25770U 99031A   25104.91368116 -.00000066  00000+0  55727-4 0  9992
2 25770  51.9826 305.8512 0002124  62.9151  32.1667 11.22558203474606
GLOBALSTAR M049         
1 25771U 99031B   25104.89233415 -.00000041  00000+0  84773-3 0  9998
2 25771  51.9904 337.4828 0001983 262.3757  97.6814 11.12113256110381
GLOBALSTAR M047         
1 25772U 99031C   25104.92111609 -.00000041  00000+0  79888-3 0  9994
2 25772  51.9867 340.4316 0016619 151.9222 208.2483 11.31927414463943
GLOBALSTAR M052         
1 25773U 99031D   25104.93382326 -.00000042  00000+0  81515-3 0  9993
2 25773  51.9845  86.9472 0002458  65.3873 335.3582 11.15059011471459
